STARLINK-30714          
1 57939U 23148E   26068.26817326 -.00000932  00000+0 -19342-4 0  9996
2 57939  53.1611  26.4425 0001068  87.7795 272.3328 15.30192407138352
NUSAT-48 (HENRIETTA LE*)
1 60498U 24149AG  26068.80506098  .00012988  00000+0  45212-3 0  9999
2 60498  97.3923 150.8264 0002754 263.3026  96.7901 15.29812597 86946
